$$SOE
2460728.500000000, A.D. 2025-Feb-22 00:00:00.0000, 4.646289786783873E+08, -1.208473256802252E+07, -4.453910083168695E+07,
2460735.500000000, A.D. 2025-Mar-01 00:00:00.0000, 4.648503783155702E+08, -2.241683479849577E+06, -4.618245949445893E+07,
2460742.500000000, A.D. 2025-Mar-08 00:00:00.0000, 4.648504092688776E+08, 7.602400026018199E+06, -4.780382412385978E+07,
2460749.500000000, A.D. 2025-Mar-15 00:00:00.0000, 4.646293866700183E+08, 1.744283756586681E+07, -4.940245483021908E+07,
2460756.500000000, A.D. 2025-Mar-22 00:00:00.0000, 4.641877154199848E+08, 2.727496530725602E+07, -5.097762295308174E+07,
2460763.500000000, A.D. 2025-Mar-29 00:00:00.0000, 4.635258886821402E+08, 3.709413544971704E+07, -5.252861127786972E+07,
2460770.500000000, A.D. 2025-Apr-05 00:00:00.0000, 4.626444880708913E+08, 4.689571656678651E+07, -5.405471433154310E+07,
2460777.500000000, A.D. 2025-Apr-12 00:00:00.0000, 4.615441836102384E+08, 5.667509491533843E+07, -5.555523857254130E+07,
2460784.500000000, A.D. 2025-Apr-19 00:00:00.0000, 4.602257332758479E+08, 6.642767583250828E+07, -5.702950253039273E+07,
2460791.500000000, A.D. 2025-Apr-26 00:00:00.0000, 4.586899823929311E+08, 7.614888501869525E+07, -5.847683693701535E+07,
2460798.500000000, A.D. 2025-May-03 00:00:00.0000, 4.569378630040588E+08, 8.583416972738326E+07, -5.989658485902405E+07,
2460805.500000000, A.D. 2025-May-10 00:00:00.0000, 4.549703932359010E+08, 9.547899987205563E+07, -6.128810183337028E+07,
2460812.500000000, A.D. 2025-May-17 00:00:00.0000, 4.527886767021325E+08, 1.050788690107648E+08, -6.265075601343381E+07,
2460819.500000000, A.D. 2025-May-24 00:00:00.0000, 4.503939021170169E+08, 1.146292951552109E+08, -6.398392834637483E+07,
2460826.500000000, A.D. 2025-May-31 00:00:00.0000, 4.477873435373604E+08, 1.241258217160369E+08, -6.528701279492949E+07,
2460833.500000000, A.D. 2025-Jun-07 00:00:00.0000, 4.449703608303396E+08, 1.335640197903519E+08, -6.655941646829785E+07,
2460840.500000000, A.D. 2025-Jun-14 00:00:00.0000, 4.419443980025938E+08, 1.429394911277628E+08, -6.780055949978714E+07,
2460847.500000000, A.D. 2025-Jun-21 00:00:00.0000, 4.387109806101052E+08, 1.522478685055292E+08, -6.900987505091578E+07,
2460854.500000000, A.D. 2025-Jun-28 00:00:00.0000, 4.352717153774207E+08, 1.614848152775069E+08, -7.018680958507559E+07,
2460861.500000000, A.D. 2025-Jul-05 00:00:00.0000, 4.316282905083109E+08, 1.706460262543598E+08, -7.133082309536791E+07,
2460868.500000000, A.D. 2025-Jul-12 00:00:00.0000, 4.277824754968351E+08, 1.797272291112036E+08, -7.244138924334349E+07,
2460875.500000000, A.D. 2025-Jul-19 00:00:00.0000, 4.237361206286463E+08, 1.887241857484713E+08, -7.351799547323768E+07,
2460882.500000000, A.D. 2025-Jul-26 00:00:00.0000, 4.194911563820873E+08, 1.976326935496964E+08, -7.456014312557624E+07,
2460889.500000000, A.D. 2025-Aug-02 00:00:00.0000, 4.150495927931389E+08, 2.064485865580545E+08, -7.556734755406770E+07,
2460896.500000000, A.D. 2025-Aug-09 00:00:00.0000, 4.104135188056695E+08, 2.151677365578994E+08, -7.653913824858969E+07,
2460903.500000000, A.D. 2025-Aug-16 00:00:00.0000, 4.055851016822371E+08, 2.237860540001274E+08, -7.747505897605816E+07,
2460910.500000000, A.D. 2025-Aug-23 00:00:00.0000, 4.005665867676793E+08, 2.322994887906001E+08, -7.837466796466222E+07,
2460917.500000000, A.D. 2025-Aug-30 00:00:00.0000, 3.953602979348504E+08, 2.407040316575252E+08, -7.923753810352835E+07,
2460924.500000000, A.D. 2025-Sep-06 00:00:00.0000, 3.899686372936289E+08, 2.489957170992050E+08, -8.006325694584127E+07,
2460931.500000000, A.D. 2025-Sep-13 00:00:00.0000, 3.843940824926481E+08, 2.571706254321140E+08, -8.085142656522810E+07,
2460938.500000000, A.D. 2025-Sep-20 00:00:00.0000, 3.786391848895665E+08, 2.652248822965063E+08, -8.160166370086712E+07,
2460945.500000000, A.D. 2025-Sep-27 00:00:00.0000, 3.727065696482666E+08, 2.731546587301862E+08, -8.231360003412104E+07,
2460952.500000000, A.D. 2025-Oct-04 00:00:00.0000, 3.665989357443166E+08, 2.809561723496915E+08, -8.298688236714989E+07,
2460959.500000000, A.D. 2025-Oct-11 00:00:00.0000, 3.603190555037855E+08, 2.886256886968172E+08, -8.362117274607798E+07,
2460966.500000000, A.D. 2025-Oct-18 00:00:00.0000, 3.538697739581907E+08, 2.961595224769579E+08, -8.421614857709037E+07,
2460973.500000000, A.D. 2025-Oct-25 00:00:00.0000, 3.472540081541201E+08, 3.035540387010151E+08, -8.477150274728976E+07,
2460980.500000000, A.D. 2025-Nov-01 00:00:00.0000, 3.404747464557385E+08, 3.108056537470481E+08, -8.528694375255564E+07,
2460987.500000000, A.D. 2025-Nov-08 00:00:00.0000, 3.335350478732618E+08, 3.179108363110796E+08, -8.576219583801894E+07,
2460994.500000000, A.D. 2025-Nov-15 00:00:00.0000, 3.264380415637351E+08, 3.248661081896649E+08, -8.619699916947143E+07,
2461001.500000000, A.D. 2025-Nov-22 00:00:00.0000, 3.191869269056649E+08, 3.316680451157292E+08, -8.659111005488157E+07,
2461008.500000000, A.D. 2025-Nov-29 00:00:00.0000, 3.117849739931718E+08, 3.383132787831565E+08, -8.694430110939562E+07,
2461015.500000000, A.D. 2025-Dec-06 00:00:00.0000, 3.042355222693416E+08, 3.447984999241886E+08, -8.725636116560861E+07,
2461022.500000000, A.D. 2025-Dec-13 00:00:00.0000, 2.965419777304301E+08, 3.511204590724604E+08, -8.752709524458730E+07,
2461029.500000000, A.D. 2025-Dec-20 00:00:00.0000, 2.887078121953999E+08, 3.572759660375399E+08, -8.775632482569793E+07,
2461036.500000000, A.D. 2025-Dec-27 00:00:00.0000, 2.807365635667395E+08, 3.632618906820073E+08, -8.794388810520864E+07,
2461043.500000000, A.D. 2026-Jan-03 00:00:00.0000, 2.726318356216714E+08, 3.690751643857410E+08, -8.808964015984750E+07,
2461050.500000000, A.D. 2026-Jan-10 00:00:00.0000, 2.643972974421846E+08, 3.747127815195081E+08, -8.819345308071885E+07,
2461057.500000000, A.D. 2026-Jan-17 00:00:00.0000, 2.560366827152675E+08, 3.801718008373445E+08, -8.825521610623950E+07,
2461064.500000000, A.D. 2026-Jan-24 00:00:00.0000, 2.475537889799679E+08, 3.854493468113752E+08, -8.827483575915349E+07,
2461071.500000000, A.D. 2026-Jan-31 00:00:00.0000, 2.389524768432512E+08, 3.905426109026550E+08, -8.825223599009597E+07,
2461078.500000000, A.D. 2026-Feb-07 00:00:00.0000, 2.302366692245697E+08, 3.954488527117460E+08, -8.818735833773641E+07,
2461085.500000000, A.D. 2026-Feb-14 00:00:00.0000, 2.214103508806146E+08, 4.001654009950520E+08, -8.808016212977223E+07,
2461092.500000000, A.D. 2026-Feb-21 00:00:00.0000, 2.124775685967319E+08, 4.046896551253923E+08, -8.793062471322180E+07,
2461099.500000000, A.D. 2026-Feb-28 00:00:00.0000, 2.034424309594090E+08, 4.090190881502441E+08, -8.773874152011131E+07,
2461106.500000000, A.D. 2026-Mar-07 00:00:00.0000, 1.943091056484604E+08, 4.131512494962097E+08, -8.750452593804845E+07,
2461113.500000000, A.D. 2026-Mar-14 00:00:00.0000, 1.850818170218028E+08, 4.170837649888685E+08, -8.722800943079935E+07,
2461120.500000000, A.D. 2026-Mar-21 00:00:00.0000, 1.757648457761476E+08, 4.208143370878267E+08, -8.690924183640458E+07,
2461127.500000000, A.D. 2026-Mar-28 00:00:00.0000, 1.663625286739221E+08, 4.243407463640808E+08, -8.654829157414716E+07,
2461134.500000000, A.D. 2026-Apr-04 00:00:00.0000, 1.568792577311132E+08, 4.276608532520745E+08, -8.614524578303249E+07,
2461141.500000000, A.D. 2026-Apr-11 00:00:00.0000, 1.473194791381420E+08, 4.307725997145482E+08, -8.570021044531617E+07,
2461148.500000000, A.D. 2026-Apr-18 00:00:00.0000, 1.376876920707197E+08, 4.336740108114294E+08, -8.521331050906064E+07,
2461155.500000000, A.D. 2026-Apr-25 00:00:00.0000, 1.279884474336123E+08, 4.363631961860473E+08, -8.468469001165058E+07,
2461162.500000000, A.D. 2026-May-02 00:00:00.0000, 1.182263465651770E+08, 4.388383514388384E+08, -8.411451220891857E+07,
2461169.500000000, A.D. 2026-May-09 00:00:00.0000, 1.084060400252310E+08, 4.410977593230942E+08, -8.350295972669902E+07,
2461176.500000000, A.D. 2026-May-16 00:00:00.0000, 9.853222684313449E+07, 4.431397909021902E+08, -8.285023475851776E+07,
2461183.500000000, A.D. 2026-May-23 00:00:00.0000, 8.860965427787092E+07, 4.449629076915313E+08, -8.215655923114805E+07,
2461190.500000000, A.D. 2026-May-30 00:00:00.0000, 7.864311601231912E+07, 4.465656651032423E+08, -8.142217472121303E+07,
2461197.500000000, A.D. 2026-Jun-06 00:00:00.0000, 6.863744846255930E+07, 4.479467139159978E+08, -8.064734235989636E+07,
2461204.500000000, A.D. 2026-Jun-13 00:00:00.0000, 5.859752886486463E+07, 4.491047999684452E+08, -7.983234304541597E+07,
2461211.500000000, A.D. 2026-Jun-20 00:00:00.0000, 4.852827463872986E+07, 4.500387650025421E+08, -7.897747767872316E+07,
2461218.500000000, A.D. 2026-Jun-27 00:00:00.0000, 3.843464232667220E+07, 4.507475483143607E+08, -7.808306729401787E+07,
2461225.500000000, A.D. 2026-Jul-04 00:00:00.0000, 2.832162610867732E+07, 4.512301884349024E+08, -7.714945314683883E+07,
2461232.500000000, A.D. 2026-Jul-11 00:00:00.0000, 1.819425614324694E+07, 4.514858247070639E+08, -7.617699679348497E+07,
2461239.500000000, A.D. 2026-Jul-18 00:00:00.0000, 8.057596826028845E+06, 4.515136987826428E+08, -7.516608016794086E+07,
2461246.500000000, A.D. 2026-Jul-25 00:00:00.0000, -2.083255011132066E+06, 4.513131560401275E+08, -7.411710565805532E+07,
2461253.500000000, A.D. 2026-Aug-01 00:00:00.0000, -1.222317191417768E+07, 4.508836468730125E+08, -7.303049618898608E+07,
2461260.500000000, A.D. 2026-Aug-08 00:00:00.0000, -2.235699742059419E+07, 4.502247278105246E+08, -7.190669533614711E+07,
2461267.500000000, A.D. 2026-Aug-15 00:00:00.0000, -3.247954705969208E+07, 4.493360629192114E+08, -7.074616746858303E+07,
2461274.500000000, A.D. 2026-Aug-22 00:00:00.0000, -4.258560950176187E+07, 4.482174267055313E+08, -6.954939775312223E+07,
2461281.500000000, A.D. 2026-Aug-29 00:00:00.0000, -5.266995014497289E+07, 4.468687071439841E+08, -6.831689192105128E+07,
2461288.500000000, A.D. 2026-Sep-05 00:00:00.0000, -6.272731500779244E+07, 4.452899059571911E+08, -6.704917622578371E+07,
2461295.500000000, A.D. 2026-Sep-12 00:00:00.0000, -7.275243247528523E+07, 4.434811386416753E+08, -6.574679761230521E+07,
$$EOE